[Satellite]
VERSION=1.1
NAME=IRIDIUM 65 [+]
NICKNAME=IRIDIUM 65 [+]
TLE1=1 25288U 98021D   17186.16314674 -.00000015  00000-0 -12418-4 0  9998
TLE2=2 25288  86.3964 216.3321 0002075  86.1236 274.0197 14.34218999  7312
